TIANMU-1 20             
1 58661U 23208B   26157.94408052  .00009426  00000+0  30158-3 0  9994
2 58661  97.4436 274.8184 0006950  12.8671 347.2747 15.32610129135856
TIANMU-1 21             
1 58662U 23208C   26157.94775071  .00011112  00000+0  33044-3 0  9995
2 58662  97.4494 277.4587 0006792   5.2489 354.8824 15.34894694135992
TIANMU-1 22             
1 58663U 23208D   26157.94202265  .00008871  00000+0  29947-3 0  9991
2 58663  97.4489 274.1362 0004174  38.1936 321.9600 15.30914130135762
TIANMU-1 15             
1 58700U 24004A   26157.94130896  .00006742  00000+0  25766-3 0  9998
2 58700  97.4674 344.1304 0007699  36.5973 323.5790 15.26917144134212
TIANMU-1 16             
1 58701U 24004B   26157.60097266  .00008203  00000+0  31551-3 0  9998
2 58701  97.4620 343.0390 0006811  42.2242 317.9519 15.26640801134168
TIANMU-1 17             
1 58702U 24004C   26157.91414872  .00007050  00000+0  27160-3 0  9999
2 58702  97.4648 343.8330 0006466  46.6441 313.5335 15.26643270134202
TIANMU-1 18             
1 58703U 24004D   26157.95780652  .00006080  00000+0  23287-3 0  9994
2 58703  97.4666 344.1255 0004955  45.9466 314.2180 15.26901601134215
INSAT-3DS               
1 58990U 24033A   26157.98648323 -.00000142  00000+0  00000+0 0  9993
2 58990   0.0069 265.7019 0001351 167.5079 259.3948  1.00273530 46969
METEOR-M2 4             
1 59051U 24039A   26157.98383377  .00000023  00000+0  30206-4 0  9996
2 59051  98.7006 117.4104 0006682 190.4911 169.6129 14.22428510117818
GOES 19                 
1 60133U 24119A   26157.90291272 -.00000234  00000+0  00000+0 0  9991
2 60133   0.0372 147.4396 0000650 353.4602   4.2718  1.00270542  6868
MTG-S1                  
1 64723U 25143A   26157.91715649 -.00000018  00000+0  00000+0 0  9998
2 64723   0.6122 336.6515 0001098  32.9476 212.4297  1.00271636  3313
METOP-SGA1              
1 65159U 25172A   26157.93255974  .00000046  00000+0  40992-4 0  9995
2 65159  98.6647 217.8472 0000957  87.6053 272.5234 14.21508129 42339
FENGYUN 3H              
1 65815U 25219A   26157.68251619  .00000067  00000+0  51978-4 0  9999
2 65815  98.6765  98.6560 0001624  85.3751 274.7611 14.19918621 35899
