OBJECT_NAME,OBJECT_ID,EPOCH,MEAN_MOTION,ECCENTRICITY,INCLINATION,RA_OF_ASC_NODE,ARG_OF_PERICENTER,MEAN_ANOMALY,EPHEMERIS_TYPE,CLASSIFICATION_TYPE,NORAD_CAT_ID,ELEMENT_SET_NO,REV_AT_EPOCH,BSTAR,MEAN_MOTION_DOT,MEAN_MOTION_DDOT
TIANMU-1 20,2023-208B,2026-06-06T22:39:28.556928,15.32610129,.00069504,97.4436,274.8184,12.8671,347.2747,0,U,58661,999,13585,.3015775E-3,.9426E-4,0
TIANMU-1 21,2023-208C,2026-06-06T22:44:45.661344,15.34894694,.00067927,97.4494,277.4587,5.2489,354.8824,0,U,58662,999,13599,.33044474E-3,.11112E-3,0
TIANMU-1 22,2023-208D,2026-06-06T22:36:30.756960,15.30914130,.00041749,97.4489,274.1362,38.1936,321.9600,0,U,58663,999,13576,.29946983E-3,.8871E-4,0
TIANMU-1 15,2024-004A,2026-06-06T22:35:29.094144,15.26917144,.0007699,97.4674,344.1304,36.5973,323.5790,0,U,58700,999,13421,.25765547E-3,.6742E-4,0
TIANMU-1 16,2024-004B,2026-06-06T14:25:24.037824,15.26640801,.0006811,97.4620,343.0390,42.2242,317.9519,0,U,58701,999,13416,.31551E-3,.8203E-4,0
TIANMU-1 17,2024-004C,2026-06-06T21:56:22.449408,15.26643270,.00064666,97.4648,343.8330,46.6441,313.5335,0,U,58702,999,13420,.27160077E-3,.705E-4,0
TIANMU-1 18,2024-004D,2026-06-06T22:59:14.483328,15.26901601,.00049559,97.4666,344.1255,45.9466,314.2180,0,U,58703,999,13421,.23286532E-3,.608E-4,0
INSAT-3DS,2024-033A,2026-06-06T23:40:32.151072,1.00273530,.00013518,0.0069,265.7019,167.5079,259.3948,0,U,58990,999,4696,0,-.142E-5,0
METEOR-M2 4,2024-039A,2026-06-06T23:36:43.237728,14.22428510,.00066826,98.7006,117.4104,190.4911,169.6129,0,U,59051,999,11781,.30205544E-4,.23E-6,0
GOES 19,2024-119A,2026-06-06T21:40:11.659008,1.00270542,.00006506,0.0372,147.4396,353.4602,4.2718,0,U,60133,999,686,0,-.234E-5,0
MTG-S1,2025-143A,2026-06-06T22:00:42.320736,1.00271636,.00010984,0.6122,336.6515,32.9476,212.4297,0,U,64723,999,331,0,-.18E-6,0
METOP-SGA1,2025-172A,2026-06-06T22:22:53.161536,14.21508129,.00009579,98.6647,217.8472,87.6053,272.5234,0,U,65159,999,4233,.40991754E-4,.46E-6,0
FENGYUN 3H,2025-219A,2026-06-06T16:22:49.398816,14.19918621,.00016245,98.6765,98.6560,85.3751,274.7611,0,U,65815,999,3589,.51977704E-4,.67E-6,0
